[{"OBJECT_NAME":"STARLINK-30505","OBJECT_ID":"2023-151J","EPOCH":"2026-03-08T02:51:45.258912","MEAN_MOTION":15.26785781,"ECCENTRICITY":0.00016319,"INCLINATION":43.0004,"RA_OF_ASC_NODE":345.0806,"ARG_OF_PERICENTER":252.0236,"MEAN_ANOMALY":108.0438,"EPHEMERIS_TYPE":0,"CLASSIFICATION_TYPE":"U","NORAD_CAT_ID":57972,"ELEMENT_SET_NO":999,"REV_AT_EPOCH":13552,"BSTAR":0.0013307698,"MEAN_MOTION_DOT":0.00035659,"MEAN_MOTION_DDOT":0},{"OBJECT_NAME":"FLOCK 4G-2","OBJECT_ID":"2025-009BE","EPOCH":"2026-03-09T15:53:23.273952","MEAN_MOTION":15.2767526,"ECCENTRICITY":0.00031811,"INCLINATION":97.4044,"RA_OF_ASC_NODE":151.2221,"ARG_OF_PERICENTER":329.2677,"MEAN_ANOMALY":30.8376,"EPHEMERIS_TYPE":0,"CLASSIFICATION_TYPE":"U","NORAD_CAT_ID":62661,"ELEMENT_SET_NO":999,"REV_AT_EPOCH":12132,"BSTAR":0.00051068481,"MEAN_MOTION_DOT":0.00013752,"MEAN_MOTION_DDOT":0}]
